{
  "type": "FeatureCollection",
  "features": [
    {
      "type": "Feature",
      "properties": {
        "norad_id": 30342,
        "name": "FENGYUN 1C DEB",
        "group": "fengyun-1c-debris",
        "lat": -74.55861029353323,
        "lon": -156.4871903389909,
        "alt_km": 1078.6127360481842,
        "timestamp": "2025-12-09T14:52:26.437545+00:00",
        "meta_object_name": "FENGYUN 1C DEB",
        "meta_object_id": "1999-025ABD",
        "meta_epoch": "2025-12-09T01:57:22.223808",
        "meta_mean_motion": 13.80035041,
        "meta_eccentricity": 0.01682631,
        "meta_inclination": 100.1957,
        "meta_ra_of_asc_node": 162.2779,
        "meta_arg_of_pericenter": 132.0227,
        "meta_mean_anomaly": 356.0331,
        "meta_ephemeris_type": 0,
        "meta_classification_type": "U",
        "meta_norad_cat_id": 30342,
        "meta_element_set_no": 999,
        "meta_rev_at_epoch": 94838,
        "meta_bstar": 0.00094569941,
        "meta_mean_motion_dot": 1.043e-05,
        "meta_mean_motion_ddot": 0,
        "tle_line1": "1 30342U 99025ABD 25343.08150722  .00001043  00000+0  94570-3 0  9994",
        "tle_line2": "2 30342 100.1957 162.2779 0168263 132.0227 356.0331 13.80035041948382"
      },
      "geometry": {
        "type": "Point",
        "coordinates": [
          -156.4871903389909,
          -74.55861029353323
        ]
      }
    },
    {
      "type": "Feature",
      "properties": {
        "norad_id": 30344,
        "name": "FENGYUN 1C DEB",
        "group": "fengyun-1c-debris",
        "lat": -73.11618359475986,
        "lon": 96.283146846804,
        "alt_km": 732.8503294606562,
        "timestamp": "2025-12-09T14:52:26.437555+00:00",
        "meta_object_name": "FENGYUN 1C DEB",
        "meta_object_id": "1999-025ABF",
        "meta_epoch": "2025-12-09T03:54:59.634144",
        "meta_mean_motion": 14.51641184,
        "meta_eccentricity": 0.00082334,
        "meta_inclination": 98.8182,
        "meta_ra_of_asc_node": 65.0433,
        "meta_arg_of_pericenter": 130.4804,
        "meta_mean_anomaly": 289.3943,
        "meta_ephemeris_type": 0,
        "meta_classification_type": "U",
        "meta_norad_cat_id": 30344,
        "meta_element_set_no": 999,
        "meta_rev_at_epoch": 98025,
        "meta_bstar": 0.0030026319,
        "meta_mean_motion_dot": 0.00012014,
        "meta_mean_motion_ddot": 0,
        "tle_line1": "1 30344U 99025ABF 25343.16319021  .00012014  00000+0  30026-2 0  9999",
        "tle_line2": "2 30344  98.8182  65.0433 0008233 130.4804 289.3943 14.51641184980256"
      },
      "geometry": {
        "type": "Point",
        "coordinates": [
          96.283146846804,
          -73.11618359475986
        ]
      }
    },
    {
      "type": "Feature",
      "properties": {
        "norad_id": 30345,
        "name": "FENGYUN 1C DEB",
        "group": "fengyun-1c-debris",
        "lat": 78.87828690203382,
        "lon": -10.177967273597988,
        "alt_km": 757.6558140174966,
        "timestamp": "2025-12-09T14:52:26.437565+00:00",
        "meta_object_name": "FENGYUN 1C DEB",
        "meta_object_id": "1999-025ABG",
        "meta_epoch": "2025-12-09T02:49:38.490240",
        "meta_mean_motion": 14.41584244,
        "meta_eccentricity": 0.00169178,
        "meta_inclination": 98.9204,
        "meta_ra_of_asc_node": 42.3283,
        "meta_arg_of_pericenter": 252.4548,
        "meta_mean_anomaly": 107.4791,
        "meta_ephemeris_type": 0,
        "meta_classification_type": "U",
        "meta_norad_cat_id": 30345,
        "meta_element_set_no": 999,
        "meta_rev_at_epoch": 97721,
        "meta_bstar": 0.002417342,
        "meta_mean_motion_dot": 7.837e-05,
        "meta_mean_motion_ddot": 0,
        "tle_line1": "1 30345U 99025ABG 25343.11780660  .00007837  00000+0  24173-2 0  9999",
        "tle_line2": "2 30345  98.9204  42.3283 0016917 252.4548 107.4791 14.41584244977217"
      },
      "geometry": {
        "type": "Point",
        "coordinates": [
          -10.177967273597988,
          78.87828690203382
        ]
      }
    },
    {
      "type": "Feature",
      "properties": {
        "norad_id": 30346,
        "name": "FENGYUN 1C DEB",
        "group": "fengyun-1c-debris",
        "lat": -61.04018649377528,
        "lon": -116.00481041354809,
        "alt_km": 820.8564968769097,
        "timestamp": "2025-12-09T14:52:26.437576+00:00",
        "meta_object_name": "FENGYUN 1C DEB",
        "meta_object_id": "1999-025ABH",
        "meta_epoch": "2025-12-09T05:37:20.980704",
        "meta_mean_motion": 14.338347,
        "meta_eccentricity": 0.00556053,
        "meta_inclination": 98.8084,
        "meta_ra_of_asc_node": 79.8747,
        "meta_arg_of_pericenter": 34.5139,
        "meta_mean_anomaly": 19.3944,
        "meta_ephemeris_type": 0,
        "meta_classification_type": "U",
        "meta_norad_cat_id": 30346,
        "meta_element_set_no": 999,
        "meta_rev_at_epoch": 97363,
        "meta_bstar": 0.0027039456,
        "meta_mean_motion_dot": 7.618e-05,
        "meta_mean_motion_ddot": 0,
        "tle_line1": "1 30346U 99025ABH 25343.23427061  .00007618  00000+0  27039-2 0  9997",
        "tle_line2": "2 30346  98.8084  79.8747 0055605  34.5139  19.3944 14.33834700973634"
      },
      "geometry": {
        "type": "Point",
        "coordinates": [
          -116.00481041354809,
          -61.04018649377528
        ]
      }
    },
    {
      "type": "Feature",
      "properties": {
        "norad_id": 30347,
        "name": "FENGYUN 1C DEB",
        "group": "fengyun-1c-debris",
        "lat": 13.860373999817408,
        "lon": 165.70712375930208,
        "alt_km": 822.5901496616489,
        "timestamp": "2025-12-09T14:52:26.437586+00:00",
        "meta_object_name": "FENGYUN 1C DEB",
        "meta_object_id": "1999-025ABJ",
        "meta_epoch": "2025-12-09T07:01:07.633344",
        "meta_mean_motion": 13.92766813,
        "meta_eccentricity": 0.01507347,
        "meta_inclination": 98.3767,
        "meta_ra_of_asc_node": 167.4943,
        "meta_arg_of_pericenter": 43.2769,
        "meta_mean_anomaly": 131.4923,
        "meta_ephemeris_type": 0,
        "meta_classification_type": "U",
        "meta_norad_cat_id": 30347,
        "meta_element_set_no": 999,
        "meta_rev_at_epoch": 95912,
        "meta_bstar": 0.00021931444,
        "meta_mean_motion_dot": 2.74e-06,
        "meta_mean_motion_ddot": 0,
        "tle_line1": "1 30347U 99025ABJ 25343.29244946  .00000274  00000+0  21931-3 0  9990",
        "tle_line2": "2 30347  98.3767 167.4943 0150734  43.2769 131.4923 13.92766813959129"
      },
      "geometry": {
        "type": "Point",
        "coordinates": [
          165.70712375930208,
          13.860373999817408
        ]
      }
    },
    {
      "type": "Feature",
      "properties": {
        "norad_id": 30348,
        "name": "FENGYUN 1C DEB",
        "group": "fengyun-1c-debris",
        "lat": 17.519608661687606,
        "lon": -98.88430921647934,
        "alt_km": 784.0956916051755,
        "timestamp": "2025-12-09T14:52:26.437599+00:00",
        "meta_object_name": "FENGYUN 1C DEB",
        "meta_object_id": "1999-025ABK",
        "meta_epoch": "2025-12-09T06:00:31.220640",
        "meta_mean_motion": 14.35039766,
        "meta_eccentricity": 0.0017322,
        "meta_inclination": 98.8628,
        "meta_ra_of_asc_node": 77.9134,
        "meta_arg_of_pericenter": 28.0569,
        "meta_mean_anomaly": 26.7202,
        "meta_ephemeris_type": 0,
        "meta_classification_type": "U",
        "meta_norad_cat_id": 30348,
        "meta_element_set_no": 999,
        "meta_rev_at_epoch": 97484,
        "meta_bstar": 0.0026677848,
        "meta_mean_motion_dot": 7.578e-05,
        "meta_mean_motion_ddot": 0,
        "tle_line1": "1 30348U 99025ABK 25343.25036135  .00007578  00000+0  26678-2 0  9992",
        "tle_line2": "2 30348  98.8628  77.9134 0017322  28.0569  26.7202 14.35039766974842"
      },
      "geometry": {
        "type": "Point",
        "coordinates": [
          -98.88430921647934,
          17.519608661687606
        ]
      }
    },
    {
      "type": "Feature",
      "properties": {
        "norad_id": 30349,
        "name": "FENGYUN 1C DEB",
        "group": "fengyun-1c-debris",
        "lat": 48.01389393454102,
        "lon": -63.46261853786756,
        "alt_km": 794.0678377705517,
        "timestamp": "2025-12-09T14:52:26.437610+00:00",
        "meta_object_name": "FENGYUN 1C DEB",
        "meta_object_id": "1999-025ABL",
        "meta_epoch": "2025-12-08T20:11:39.933888",
        "meta_mean_motion": 14.11058687,
        "meta_eccentricity": 0.00894131,
        "meta_inclination": 98.585,
        "meta_ra_of_asc_node": 305.4564,
        "meta_arg_of_pericenter": 23.1635,
        "meta_mean_anomaly": 33.6769,
        "meta_ephemeris_type": 0,
        "meta_classification_type": "U",
        "meta_norad_cat_id": 30349,
        "meta_element_set_no": 999,
        "meta_rev_at_epoch": 96176,
        "meta_bstar": 0.0038688017,
        "meta_mean_motion_dot": 7.189e-05,
        "meta_mean_motion_ddot": 0,
        "tle_line1": "1 30349U 99025ABL 25342.84143442  .00007189  00000+0  38688-2 0  9999",
        "tle_line2": "2 30349  98.5850 305.4564 0089413  23.1635  33.6769 14.11058687961762"
      },
      "geometry": {
        "type": "Point",
        "coordinates": [
          -63.46261853786756,
          48.01389393454102
        ]
      }
    }
  ]
}